[{"OBJECT_NAME":"WILDFIRE 2","OBJECT_ID":"2023-133L","EPOCH":"2026-03-09T19:22:31.583136","MEAN_MOTION":13.8518725,"ECCENTRICITY":0.00045046,"INCLINATION":80.993,"RA_OF_ASC_NODE":102.8595,"ARG_OF_PERICENTER":298.2911,"MEAN_ANOMALY":61.779,"EPHEMERIS_TYPE":0,"CLASSIFICATION_TYPE":"U","NORAD_CAT_ID":57767,"ELEMENT_SET_NO":999,"REV_AT_EPOCH":12724,"BSTAR":6.4756906e-5,"MEAN_MOTION_DOT":8.4e-7,"MEAN_MOTION_DDOT":0},{"OBJECT_NAME":"THOR ABLESTAR DEB","OBJECT_ID":"1961-015AE","EPOCH":"2026-03-09T21:54:11.647584","MEAN_MOTION":13.91625509,"ECCENTRICITY":0.00358724,"INCLINATION":66.4979,"RA_OF_ASC_NODE":273.7476,"ARG_OF_PERICENTER":56.4855,"MEAN_ANOMALY":303.9641,"EPHEMERIS_TYPE":0,"CLASSIFICATION_TYPE":"U","NORAD_CAT_ID":144,"ELEMENT_SET_NO":999,"REV_AT_EPOCH":27083,"BSTAR":0.00024453263,"MEAN_MOTION_DOT":2.33e-6,"MEAN_MOTION_DDOT":0}]
